start=new Date('2022-04-30T00:00:00.000Z').valueOf();
sats=[{"FILE":"3421985","SITE":"AFETR","TLE_LINE2":"2 52288  53.2173 334.0649 0001213  65.5745  71.1209 15.74054816  1941","PERIOD":"91.483","MEAN_MOTION_DDOT":"0.0000000000000","COUNTRY_CODE":"US","OBJECT_ID":"2022-041AD","REF_FRAME":"TEME","ECCENTRICITY":"0.00012130","BSTAR":"-0.00657210000000","EPOCH":"2022-04-29T22:00:00.999936","CENTER_NAME":"EARTH","RCS_SIZE":null,"APOAPSIS":"348.140","MEAN_MOTION_DOT":"-0.00864716","TLE_LINE1":"1 52288U 22041AD  22119.91667824 -.00864716  00000-0 -65721-2 0  9999","INCLINATION":"53.2173","MEAN_MOTION":"15.74054816","NORAD_CAT_ID":"52288","DECAY_DATE":null,"RA_OF_ASC_NODE":"334.0649","OBJECT_TYPE":"PAYLOAD","MEAN_ANOMALY":"71.1209","ELEMENT_SET_NO":"999","REV_AT_EPOCH":"194","EPHEMERIS_TYPE":"0","TIME_SYSTEM":"UTC","ARG_OF_PERICENTER":"65.5745","PERIAPSIS":"346.508","SEMIMAJOR_AXIS":"6725.459","GP_ID":"202313550","MEAN_ELEMENT_THEORY":"SGP4","OBJECT_NAME":"STARLINK-3776","LAUNCH_DATE":"2022-04-21","CLASSIFICATION_TYPE":"U"},{"REF_FRAME":"TEME","ECCENTRICITY":"0.00015080","EPOCH":"2022-04-29T22:00:00.999936","BSTAR":"-0.00628180000000","COUNTRY_CODE":"US","OBJECT_ID":"2022-041AE","TLE_LINE2":"2 52289  53.2173 334.0700 0001508  43.0618  91.3841 15.73952297  1942","SITE":"AFETR","PERIOD":"91.489","MEAN_MOTION_DDOT":"0.0000000000000","FILE":"3421985","DECAY_DATE":null,"NORAD_CAT_ID":"52289","INCLINATION":"53.2173","MEAN_MOTION":"15.73952297","MEAN_MOTION_DOT":"-0.00826746","TLE_LINE1":"1 52289U 22041AE  22119.91667824 -.00826746  00000-0 -62818-2 0  9995","RCS_SIZE":null,"CENTER_NAME":"EARTH","APOAPSIS":"348.630","REV_AT_EPOCH":"194","EPHEMERIS_TYPE":"0","TIME_SYSTEM":"UTC","MEAN_ANOMALY":"91.3841","ELEMENT_SET_NO":"999","OBJECT_TYPE":"PAYLOAD","RA_OF_ASC_NODE":"334.0700","MEAN_ELEMENT_THEORY":"SGP4","OBJECT_NAME":"STARLINK-3751","LAUNCH_DATE":"2022-04-21","CLASSIFICATION_TYPE":"U","SEMIMAJOR_AXIS":"6725.751","GP_ID":"202313715","ARG_OF_PERICENTER":"43.0618","PERIAPSIS":"346.602"},{"TIME_SYSTEM":"UTC","EPHEMERIS_TYPE":"0","REV_AT_EPOCH":"194","ELEMENT_SET_NO":"999","MEAN_ANOMALY":"89.3346","OBJECT_TYPE":"PAYLOAD","RA_OF_ASC_NODE":"334.0614","CLASSIFICATION_TYPE":"U","LAUNCH_DATE":"2022-04-21","OBJECT_NAME":"STARLINK-3772","MEAN_ELEMENT_THEORY":"SGP4","GP_ID":"202313145","SEMIMAJOR_AXIS":"6725.260","PERIAPSIS":"346.163","ARG_OF_PERICENTER":"49.0389","EPOCH":"2022-04-29T22:00:00.999936","BSTAR":"-0.00664110000000","ECCENTRICITY":"0.00014300","REF_FRAME":"TEME","OBJECT_ID":"2022-041AF","COUNTRY_CODE":"US","MEAN_MOTION_DDOT":"0.0000000000000","PERIOD":"91.479","SITE":"AFETR","TLE_LINE2":"2 52290  53.2173 334.0614 0001430  49.0389  89.3346 15.74124763  1940","FILE":"3421985","NORAD_CAT_ID":"52290","DECAY_DATE":null,"MEAN_MOTION":"15.74124763","INCLINATION":"53.2173","TLE_LINE1":"1 52290U 22041AF  22119.91667824 -.00875395  00000-0 -66411-2 0  9994","MEAN_MOTION_DOT":"-0.00875395","APOAPSIS":"348.087","RCS_SIZE":null,"CENTER_NAME":"EARTH"},{"OBJECT_TYPE":"PAYLOAD","RA_OF_ASC_NODE":"334.0676","MEAN_ANOMALY":"70.5767","ELEMENT_SET_NO":"999","REV_AT_EPOCH":"194","EPHEMERIS_TYPE":"0","TIME_SYSTEM":"UTC","ARG_OF_PERICENTER":"64.9949","PERIAPSIS":"346.637","SEMIMAJOR_AXIS":"6725.599","GP_ID":"202313310","LAUNCH_DATE":"2022-04-21","OBJECT_NAME":"STARLINK-3773","MEAN_ELEMENT_THEORY":"SGP4","CLASSIFICATION_TYPE":"U","FILE":"3421985","PERIOD":"91.486","TLE_LINE2":"2 52291  53.2173 334.0676 0001230  64.9949  70.5767 15.74005572  1940","SITE":"AFETR","MEAN_MOTION_DDOT":"0.0000000000000","OBJECT_ID":"2022-041AG","COUNTRY_CODE":"US","ECCENTRICITY":"0.00012300","REF_FRAME":"TEME","BSTAR":"-0.00646170000000","EPOCH":"2022-04-29T22:00:00.999936","CENTER_NAME":"EARTH","RCS_SIZE":null,"APOAPSIS":"348.292","TLE_LINE1":"1 52291U 22041AG  22119.91667824 -.00849908  00000-0 -64617-2 0  9992","MEAN_MOTION_DOT":"-0.00849908","INCLINATION":"53.2173","MEAN_MOTION":"15.74005572","DECAY_DATE":null,"NORAD_CAT_ID":"52291"},{"RA_OF_ASC_NODE":"334.0591","OBJECT_TYPE":"PAYLOAD","REV_AT_EPOCH":"194","EPHEMERIS_TYPE":"0","TIME_SYSTEM":"UTC","MEAN_ANOMALY":"91.3473","ELEMENT_SET_NO":"999","GP_ID":"202313228","SEMIMAJOR_AXIS":"6725.137","ARG_OF_PERICENTER":"48.1432","PERIAPSIS":"346.040","OBJECT_NAME":"STARLINK-3753","LAUNCH_DATE":"2022-04-21","MEAN_ELEMENT_THEORY":"SGP4","CLASSIFICATION_TYPE":"U","PERIOD":"91.477","SITE":"AFETR","TLE_LINE2":"2 52292  53.2173 334.0591 0001431  48.1432  91.3473 15.74167897  1945","MEAN_MOTION_DDOT":"0.0000000000000","FILE":"3421985","ECCENTRICITY":"0.00014310","REF_FRAME":"TEME","BSTAR":"-0.00664690000000","EPOCH":"2022-04-29T22:00:00.999936","OBJECT_ID":"2022-041AH","COUNTRY_CODE":"US","TLE_LINE1":"1 52292U 22041AH  22119.91667824 -.00877575  00000-0 -66469-2 0  9991","MEAN_MOTION_DOT":"-0.00877575","RCS_SIZE":null,"CENTER_NAME":"EARTH","APOAPSIS":"347.964","NORAD_CAT_ID":"52292","DECAY_DATE":null,"INCLINATION":"53.2173","MEAN_MOTION":"15.74167897"},{"FILE":"3421985","MEAN_MOTION_DDOT":"0.0000000000000","PERIOD":"91.482","SITE":"AFETR","TLE_LINE2":"2 52293  53.2173 334.0641 0001281  59.5175  77.7380 15.74078695  1947","OBJECT_ID":"2022-041AJ","COUNTRY_CODE":"US","BSTAR":"-0.00660650000000","EPOCH":"2022-04-29T22:00:00.999936","ECCENTRICITY":"0.00012810","REF_FRAME":"TEME","APOAPSIS":"348.118","RCS_SIZE":null,"CENTER_NAME":"EARTH","TLE_LINE1":"1 52293U 22041AJ  22119.91667824 -.00869647  00000-0 -66065-2 0  9995","MEAN_MOTION_DOT":"-0.00869647","MEAN_MOTION":"15.74078695","INCLINATION":"53.2173","DECAY_DATE":null,"NORAD_CAT_ID":"52293","RA_OF_ASC_NODE":"334.0641","OBJECT_TYPE":"PAYLOAD","ELEMENT_SET_NO":"999","MEAN_ANOMALY":"77.7380","EPHEMERIS_TYPE":"0","TIME_SYSTEM":"UTC","REV_AT_EPOCH":"194","PERIAPSIS":"346.395","ARG_OF_PERICENTER":"59.5175","GP_ID":"202313392","SEMIMAJOR_AXIS":"6725.391","CLASSIFICATION_TYPE":"U","LAUNCH_DATE":"2022-04-21","OBJECT_NAME":"STARLINK-3771","MEAN_ELEMENT_THEORY":"SGP4"},{"CLASSIFICATION_TYPE":"U","MEAN_ELEMENT_THEORY":"SGP4","LAUNCH_DATE":"2022-04-21","OBJECT_NAME":"STARLINK-3777","SEMIMAJOR_AXIS":"6725.076","GP_ID":"202313468","PERIAPSIS":"346.016","ARG_OF_PERICENTER":"52.2459","EPHEMERIS_TYPE":"0","TIME_SYSTEM":"UTC","REV_AT_EPOCH":"194","ELEMENT_SET_NO":"999","MEAN_ANOMALY":"87.8014","OBJECT_TYPE":"PAYLOAD","RA_OF_ASC_NODE":"334.0579","NORAD_CAT_ID":"52294","DECAY_DATE":null,"MEAN_MOTION":"15.74189477","INCLINATION":"53.2173","MEAN_MOTION_DOT":"-0.00878005","TLE_LINE1":"1 52294U 22041AK  22119.91667824 -.00878005  00000-0 -66444-2 0  9995","APOAPSIS":"347.865","CENTER_NAME":"EARTH","RCS_SIZE":null,"EPOCH":"2022-04-29T22:00:00.999936","BSTAR":"-0.00664440000000","REF_FRAME":"TEME","ECCENTRICITY":"0.00013750","COUNTRY_CODE":"US","OBJECT_ID":"2022-041AK","MEAN_MOTION_DDOT":"0.0000000000000","SITE":"AFETR","TLE_LINE2":"2 52294  53.2173 334.0579 0001375  52.2459  87.8014 15.74189477  1944","PERIOD":"91.476","FILE":"3421985"},{"MEAN_MOTION_DOT":"-0.00873034","TLE_LINE1":"1 52295U 22041AL  22119.91667824 -.00873034  00000-0 -66282-2 0  9993","APOAPSIS":"348.107","RCS_SIZE":null,"CENTER_NAME":"EARTH","DECAY_DATE":null,"NORAD_CAT_ID":"52295","MEAN_MOTION":"15.74101434","INCLINATION":"53.2173","MEAN_MOTION_DDOT":"0.0000000000000","SITE":"AFETR","TLE_LINE2":"2 52295  53.2173 334.0629 0001361  55.1961  82.6197 15.74101434  1948","PERIOD":"91.481","FILE":"3421985","BSTAR":"-0.00662820000000","EPOCH":"2022-04-29T22:00:00.999936","REF_FRAME":"TEME","ECCENTRICITY":"0.00013610","COUNTRY_CODE":"US","OBJECT_ID":"2022-041AL","SEMIMAJOR_AXIS":"6725.326","GP_ID":"202313633","PERIAPSIS":"346.276","ARG_OF_PERICENTER":"55.1961","CLASSIFICATION_TYPE":"U","MEAN_ELEMENT_THEORY":"SGP4","OBJECT_NAME":"STARLINK-3765","LAUNCH_DATE":"2022-04-21","OBJECT_TYPE":"PAYLOAD","RA_OF_ASC_NODE":"334.0629","TIME_SYSTEM":"UTC","EPHEMERIS_TYPE":"0","REV_AT_EPOCH":"194","ELEMENT_SET_NO":"999","MEAN_ANOMALY":"82.6197"},{"MEAN_MOTION":"15.74253416","INCLINATION":"53.2173","DECAY_DATE":null,"NORAD_CAT_ID":"52296","APOAPSIS":"347.647","CENTER_NAME":"EARTH","RCS_SIZE":null,"TLE_LINE1":"1 52296U 22041AM  22119.91667824 -.00877391  00000-0 -66209-2 0  9993","MEAN_MOTION_DOT":"-0.00877391","OBJECT_ID":"2022-041AM","COUNTRY_CODE":"US","BSTAR":"-0.00662090000000","EPOCH":"2022-04-29T22:00:00.999936","ECCENTRICITY":"0.00013210","REF_FRAME":"TEME","FILE":"3421985","MEAN_MOTION_DDOT":"0.0000000000000","PERIOD":"91.472","TLE_LINE2":"2 52296  53.2173 334.0544 0001321  59.3685  82.3437 15.74253416  1942","SITE":"AFETR","CLASSIFICATION_TYPE":"U","OBJECT_NAME":"STARLINK-3766","LAUNCH_DATE":"2022-04-21","MEAN_ELEMENT_THEORY":"SGP4","PERIAPSIS":"345.870","ARG_OF_PERICENTER":"59.3685","SEMIMAJOR_AXIS":"6724.894","GP_ID":"202313551","ELEMENT_SET_NO":"999","MEAN_ANOMALY":"82.3437","EPHEMERIS_TYPE":"0","TIME_SYSTEM":"UTC","REV_AT_EPOCH":"194","OBJECT_TYPE":"PAYLOAD","RA_OF_ASC_NODE":"334.0544"},{"ELEMENT_SET_NO":"999","MEAN_ANOMALY":"80.6481","EPHEMERIS_TYPE":"0","TIME_SYSTEM":"UTC","REV_AT_EPOCH":"194","RA_OF_ASC_NODE":"334.0606","OBJECT_TYPE":"PAYLOAD","CLASSIFICATION_TYPE":"U","MEAN_ELEMENT_THEORY":"SGP4","OBJECT_NAME":"STARLINK-3758","LAUNCH_DATE":"2022-04-21","PERIAPSIS":"346.196","ARG_OF_PERICENTER":"58.2851","SEMIMAJOR_AXIS":"6725.199","GP_ID":"202313716","COUNTRY_CODE":"US","OBJECT_ID":"2022-041AN","BSTAR":"-0.00664830000000","EPOCH":"2022-04-29T22:00:00.999936","REF_FRAME":"TEME","ECCENTRICITY":"0.00012920","FILE":"3421985","MEAN_MOTION_DDOT":"0.0000000000000","TLE_LINE2":"2 52297  53.2173 334.0606 0001292  58.2851  80.6481 15.74146013  1946","SITE":"AFETR","PERIOD":"91.478","MEAN_MOTION":"15.74146013","INCLINATION":"53.2173","DECAY_DATE":null,"NORAD_CAT_ID":"52297","APOAPSIS":"347.933","RCS_SIZE":null,"CENTER_NAME":"EARTH","MEAN_MOTION_DOT":"-0.00876942","TLE_LINE1":"1 52297U 22041AN  22119.91667824 -.00876942  00000-0 -66483-2 0  9999"}];
